{
  "type": "FeatureCollection",
  "features": [
    {
      "type": "Feature",
      "properties": {
        "norad_id": 37238,
        "name": "INTELSAT 17 (IS-17)",
        "group": "intelsat",
        "lat": -0.004477998610203328,
        "lon": 137.4766831976179,
        "alt_km": 35791.2619580925,
        "timestamp": "2025-12-08T23:34:03.637494+00:00",
        "meta_object_name": "INTELSAT 17 (IS-17)",
        "meta_object_id": "2010-065B",
        "meta_epoch": "2025-12-08T13:55:05.439648",
        "meta_mean_motion": 1.00272258,
        "meta_eccentricity": 0.00024453,
        "meta_inclination": 0.0172,
        "meta_ra_of_asc_node": 280.768,
        "meta_arg_of_pericenter": 337.6714,
        "meta_mean_anomaly": 93.9259,
        "meta_ephemeris_type": 0,
        "meta_classification_type": "U",
        "meta_norad_cat_id": 37238,
        "meta_element_set_no": 999,
        "meta_rev_at_epoch": 5133,
        "meta_bstar": 0,
        "meta_mean_motion_dot": 0,
        "meta_mean_motion_ddot": 0,
        "tle_line1": "1 37238U 10065B   25342.57992407  .00000000  00000+0  00000+0 0  9992",
        "tle_line2": "2 37238   0.0172 280.7680 0002445 337.6714  93.9259  1.00272258 51338"
      },
      "geometry": {
        "type": "Point",
        "coordinates": [
          137.4766831976179,
          -0.004477998610203328
        ]
      }
    },
    {
      "type": "Feature",
      "properties": {
        "norad_id": 37392,
        "name": "INTELSAT 28 (IS-28)",
        "group": "intelsat",
        "lat": -0.9160482933624483,
        "lon": 39.827206848461145,
        "alt_km": 35798.71661033813,
        "timestamp": "2025-12-08T23:34:03.637509+00:00",
        "meta_object_name": "INTELSAT 28 (IS-28)",
        "meta_object_id": "2011-016A",
        "meta_epoch": "2025-12-08T10:01:42.790368",
        "meta_mean_motion": 1.00271812,
        "meta_eccentricity": 0.00039877,
        "meta_inclination": 1.3133,
        "meta_ra_of_asc_node": 85.105,
        "meta_arg_of_pericenter": 177.0806,
        "meta_mean_anomaly": 293.9628,
        "meta_ephemeris_type": 0,
        "meta_classification_type": "U",
        "meta_norad_cat_id": 37392,
        "meta_element_set_no": 999,
        "meta_rev_at_epoch": 5137,
        "meta_bstar": 0,
        "meta_mean_motion_dot": -2.23e-06,
        "meta_mean_motion_ddot": 0,
        "tle_line1": "1 37392U 11016A   25342.41785637 -.00000223  00000+0  00000+0 0  9996",
        "tle_line2": "2 37392   1.3133  85.1050 0003987 177.0806 293.9628  1.00271812 51379"
      },
      "geometry": {
        "type": "Point",
        "coordinates": [
          39.827206848461145,
          -0.9160482933624483
        ]
      }
    },
    {
      "type": "Feature",
      "properties": {
        "norad_id": 37834,
        "name": "INTELSAT 18 (IS-18)",
        "group": "intelsat",
        "lat": -0.03985078727913514,
        "lon": -108.51715672200535,
        "alt_km": 35777.57559717604,
        "timestamp": "2025-12-08T23:34:03.637521+00:00",
        "meta_object_name": "INTELSAT 18 (IS-18)",
        "meta_object_id": "2011-056A",
        "meta_epoch": "2025-12-08T14:56:08.410848",
        "meta_mean_motion": 1.00270991,
        "meta_eccentricity": 0.00020978,
        "meta_inclination": 0.0184,
        "meta_ra_of_asc_node": 338.9815,
        "meta_arg_of_pericenter": 283.8407,
        "meta_mean_anomaly": 218.8358,
        "meta_ephemeris_type": 0,
        "meta_classification_type": "U",
        "meta_norad_cat_id": 37834,
        "meta_element_set_no": 999,
        "meta_rev_at_epoch": 5190,
        "meta_bstar": 0,
        "meta_mean_motion_dot": 5.5e-07,
        "meta_mean_motion_ddot": 0,
        "tle_line1": "1 37834U 11056A   25342.62231957  .00000055  00000+0  00000+0 0  9997",
        "tle_line2": "2 37834   0.0184 338.9815 0002097 283.8407 218.8358  1.00270991 51906"
      },
      "geometry": {
        "type": "Point",
        "coordinates": [
          -108.51715672200535,
          -0.03985078727913514
        ]
      }
    },
    {
      "type": "Feature",
      "properties": {
        "norad_id": 38098,
        "name": "INTELSAT 22 (IS-22)",
        "group": "intelsat",
        "lat": -0.0020278974451175724,
        "lon": 143.5788614841403,
        "alt_km": 35791.70193639757,
        "timestamp": "2025-12-08T23:34:03.637533+00:00",
        "meta_object_name": "INTELSAT 22 (IS-22)",
        "meta_object_id": "2012-011A",
        "meta_epoch": "2025-12-08T13:56:50.272224",
        "meta_mean_motion": 1.00267912,
        "meta_eccentricity": 0.00016894,
        "meta_inclination": 0.0198,
        "meta_ra_of_asc_node": 308.1155,
        "meta_arg_of_pericenter": 324.972,
        "meta_mean_anomaly": 85.8152,
        "meta_ephemeris_type": 0,
        "meta_classification_type": "U",
        "meta_norad_cat_id": 38098,
        "meta_element_set_no": 999,
        "meta_rev_at_epoch": 527,
        "meta_bstar": 0,
        "meta_mean_motion_dot": -5.6e-07,
        "meta_mean_motion_ddot": 0,
        "tle_line1": "1 38098U 12011A   25342.58113741 -.00000056  00000+0  00000+0 0  9999",
        "tle_line2": "2 38098   0.0198 308.1155 0001689 324.9720  85.8152  1.00267912  5273"
      },
      "geometry": {
        "type": "Point",
        "coordinates": [
          143.5788614841403,
          -0.0020278974451175724
        ]
      }
    },
    {
      "type": "Feature",
      "properties": {
        "norad_id": 38356,
        "name": "INTELSAT 19 (IS-19)",
        "group": "intelsat",
        "lat": -0.030633265268643555,
        "lon": -122.52488606248716,
        "alt_km": 35772.83591870315,
        "timestamp": "2025-12-08T23:34:03.637546+00:00",
        "meta_object_name": "INTELSAT 19 (IS-19)",
        "meta_object_id": "2012-030A",
        "meta_epoch": "2025-12-08T14:23:32.714016",
        "meta_mean_motion": 1.00271413,
        "meta_eccentricity": 0.00035678,
        "meta_inclination": 0.0101,
        "meta_ra_of_asc_node": 328.5495,
        "meta_arg_of_pericenter": 296.8794,
        "meta_mean_anomaly": 194.0643,
        "meta_ephemeris_type": 0,
        "meta_classification_type": "U",
        "meta_norad_cat_id": 38356,
        "meta_element_set_no": 999,
        "meta_rev_at_epoch": 4854,
        "meta_bstar": 0,
        "meta_mean_motion_dot": -5.4e-07,
        "meta_mean_motion_ddot": 0,
        "tle_line1": "1 38356U 12030A   25342.59968419 -.00000054  00000+0  00000+0 0  9996",
        "tle_line2": "2 38356   0.0101 328.5495 0003567 296.8794 194.0643  1.00271413 48548"
      },
      "geometry": {
        "type": "Point",
        "coordinates": [
          -122.52488606248716,
          -0.030633265268643555
        ]
      }
    },
    {
      "type": "Feature",
      "properties": {
        "norad_id": 38740,
        "name": "INTELSAT 20 (IS-20)",
        "group": "intelsat",
        "lat": 0.0012177252889811244,
        "lon": 139.9904639906118,
        "alt_km": 35776.64149378363,
        "timestamp": "2025-12-08T23:34:03.637558+00:00",
        "meta_object_name": "INTELSAT 20 (IS-20)",
        "meta_object_id": "2012-043A",
        "meta_epoch": "2025-12-08T10:30:17.553024",
        "meta_mean_motion": 1.00273639,
        "meta_eccentricity": 0.0002741,
        "meta_inclination": 0.0021,
        "meta_ra_of_asc_node": 74.2164,
        "meta_arg_of_pericenter": 104.9934,
        "meta_mean_anomaly": 124.3222,
        "meta_ephemeris_type": 0,
        "meta_classification_type": "U",
        "meta_norad_cat_id": 38740,
        "meta_element_set_no": 999,
        "meta_rev_at_epoch": 4883,
        "meta_bstar": 0,
        "meta_mean_motion_dot": -2.3e-07,
        "meta_mean_motion_ddot": 0,
        "tle_line1": "1 38740U 12043A   25342.43770316 -.00000023  00000+0  00000+0 0  9993",
        "tle_line2": "2 38740   0.0021  74.2164 0002741 104.9934 124.3222  1.00273639 48835"
      },
      "geometry": {
        "type": "Point",
        "coordinates": [
          139.9904639906118,
          0.0012177252889811244
        ]
      }
    },
    {
      "type": "Feature",
      "properties": {
        "norad_id": 38749,
        "name": "INTELSAT 21 (IS-21)",
        "group": "intelsat",
        "lat": 0.009397092212117686,
        "lon": 13.516650957474736,
        "alt_km": 35791.066356243966,
        "timestamp": "2025-12-08T23:34:03.637570+00:00",
        "meta_object_name": "INTELSAT 21 (IS-21)",
        "meta_object_id": "2012-045A",
        "meta_epoch": "2025-12-08T11:36:56.170944",
        "meta_mean_motion": 1.00270654,
        "meta_eccentricity": 0.00022023,
        "meta_inclination": 0.0156,
        "meta_ra_of_asc_node": 8.0468,
        "meta_arg_of_pericenter": 245.7686,
        "meta_mean_anomaly": 299.9134,
        "meta_ephemeris_type": 0,
        "meta_classification_type": "U",
        "meta_norad_cat_id": 38749,
        "meta_element_set_no": 999,
        "meta_rev_at_epoch": 4861,
        "meta_bstar": 0,
        "meta_mean_motion_dot": -2.83e-06,
        "meta_mean_motion_ddot": 0,
        "tle_line1": "1 38749U 12045A   25342.48398346 -.00000283  00000+0  00000+0 0  9996",
        "tle_line2": "2 38749   0.0156   8.0468 0002202 245.7686 299.9134  1.00270654 48616"
      },
      "geometry": {
        "type": "Point",
        "coordinates": [
          13.516650957474736,
          0.009397092212117686
        ]
      }
    }
  ]
}